{
  "norad_id": 65409,
  "name": "STARLINK-35022",
  "history": [
    {
      "epoch": "2026-03-28T21:01:57.126432Z",
      "apogee_km": 476.0746428010016,
      "perigee_km": 474.2722221572594,
      "latitude_deg": 5.1937657626854e-06,
      "longitude_deg": 1.3253656279817816,
      "height_km": 476.00020286640245,
      "semi_major_axis_km": 6853.31043247913,
      "eccentricity": 0.0001315,
      "inclination_deg": 53.161,
      "raan_deg": 143.1039,
      "arg_perigee_deg": 85.4583,
      "mean_anomaly_deg": 274.6568,
      "mean_motion_rev_day": 15.30213945
    }
  ]
}